HST                     
1 20580U 90037B   26162.21026604  .00005021  00000+0  15696-3 0  9999
2 20580  28.4707 121.4212 0001970  81.6673 278.4146 15.30680019787654
POLAR                   
1 23802U 96013A   26161.87519764  .00000124  00000+0  00000+0 0  9992
2 23802  79.8459 227.1261 6464299 209.2978  89.4613  1.29846139144774
SWAS                    
1 25560U 98071A   26162.64855418  .00003222  00000+0  20641-3 0  9995
2 25560  69.8964 241.8017 0008881 265.1025  94.9126 15.09593851496434
CXO                     
1 25867U 99040B   26164.08641897  .00000611  00000+0  00000+0 0  9998
2 25867  56.1211 116.7320 7849026 310.2825   0.0985  0.37806491 17304
XMM-NEWTON              
1 25989U 99066A   26163.36279180  .00000079  00000+0  00000+0 0  9991
2 25989  64.5165 283.0486 4676939  65.0051   0.0920  0.50123487 22986
TERRA                   
1 25994U 99068A   26162.82440921  .00000323  00000+0  74687-4 0  9991
2 25994  97.9458 212.5831 0001177 211.7689 270.0977 14.61098812408829
CLUSTER II-FM7 (SAMBA)  
1 26410U 00041A   26163.67757316  .00005012  00000+0  00000+0 0  9994
2 26410 149.9129  50.0471 9050232 267.1318 359.9673  0.44876884 20290
CLUSTER II-FM8 (TANGO)  
1 26464U 00045B   26161.68499571  .00004607  00000+0  00000+0 0  9991
2 26464 150.1502  50.7513 9053421 267.6711   3.1468  0.44409835 20284
ODIN                    
1 26702U 01007A   26162.63011844  .00161235  00000+0  11182-2 0  9991
2 26702  97.3847 203.2219 0006672 150.0809 210.0837 15.73954922388524
TIMED                   
1 26998U 01055B   26162.65576345  .00001103  00000+0  10375-3 0  9996
2 26998  74.0676 246.1556 0000807 344.6756  15.4403 14.95283372329998
CORIOLIS                
1 27640U 03001A   26162.63043924  .00000095  00000+0  65257-4 0  9993
2 27640  98.7125 169.6001 0013100 225.7060 134.3042 14.19943317213435
SORCE                   
1 27651U 03004A   26162.62714729  .00002625  00000+0  19863-3 0  9997
2 27651  39.9914 293.3998 0017259   7.8161 352.2899 15.03683998271064
MOST                    
1 27843U 03031D   26162.57954391  .00000062  00000+0  48700-4 0  9991
2 27843  98.7044 170.3837 0008673 268.7564  91.2619 14.21321395189916
SCISAT 1                
1 27858U 03036A   26162.48560649  .00000462  00000+0  63745-4 0  9991
2 27858  73.9285 182.6712 0008662 251.9878 108.0354 14.81442151230608
SWIFT                   
1 28485U 04047A   26162.52522243  .00060510  00000+0  51483-3 0  9999
2 28485  20.5545 228.5626 0002047 197.4245 162.6131 15.67804210185970
HINODE (SOLAR-B)        
1 29479U 06041A   26162.80294584  .00000594  00000+0  11046-3 0  9991
2 29479  98.0549 179.0349 0016213 308.3208  51.6539 14.68615672 54080
SHIJIAN-6 02A (SJ-6 02A)
1 29505U 06046A   26162.81437676  .00003886  00000+0  20090-3 0  9994
2 29505  97.6369 203.8403 0004098 136.7478 223.4078 15.16874859 71457
SHIJIAN-6 02B (SJ-6 02B)
1 29506U 06046B   26162.88125720  .00001095  00000+0  89546-4 0  9998
2 29506  97.7166 191.9725 0015043  75.8168 284.4727 15.01362981 69940
FGRST (GLAST)           
1 33053U 08029A   26162.53193185  .00003028  00000+0  10820-3 0  9991
2 33053  25.5814 243.7508 0007603 258.7530 101.2154 15.23922087994977
SDO                     
1 36395U 10005A   26162.29141986 -.00000074  00000+0  00000+0 0  9999
2 36395  34.6389  86.4327 0001607  52.7574 123.3287  1.00270396 60005
CRYOSAT 2               
1 36508U 10013A   26162.84357037  .00000120  00000+0  28973-4 0  9996
2 36508  92.0350 276.0028 0002197  87.3994 272.7465 14.51897360857307
X-SAT                   
1 37389U 11015C   26162.88991839  .00000084  00000+0  53341-4 0  9991
2 37389  98.3505 140.1655 0014277   4.0331 356.0962 14.25204877786929
GCOM-W1 (SHIZUKU)       
1 38337U 12025A   26162.81268426  .00000378  00000+0  93992-4 0  9991
2 38337  98.2022 103.4498 0001837  78.8233 335.7683 14.57119631748257
NUSTAR                  
1 38358U 12031A   26162.91668980  .00004780  00000+0  24248-3 0  9999
2 38358   6.0257  73.6565 0007494  23.8952 158.9937 15.08752435  1300
NEOSSAT                 
1 39089U 13009D   26162.49521747  .00000136  00000+0  61662-4 0  9992
2 39089  98.4175 342.6633 0009791 262.8605  97.1468 14.35824467695927
BRITE-AUSTRIA           
1 39091U 13009F   26162.42702338  .00000141  00000+0  62670-4 0  9991
2 39091  98.3993 342.0054 0008992 255.9460 104.0727 14.36539758696229
IRIS                    
1 39197U 13033A   26162.50822124  .00000912  00000+0  11063-3 0  9995
2 39197  97.9334   1.8031 0023963 340.9576  19.0741 14.85874066699539
HISAKI (SPRINT-A)       
1 39253U 13049A   26162.23666595  .00000128  00000+0  86305-4 0  9994
2 39253  29.7197 250.2666 0136892 328.6235  30.6229 13.55544055630619
CASSIOPE                
1 39265U 13055A   26162.78157391  .00044350 -53035-6  48674-3 0  9998
2 39265  80.9146  73.2824 0294721  80.5656 282.8759 15.24686261666848
STSAT-3                 
1 39422U 13066G   26162.85243884  .00003247  00000+0  24729-3 0  9997
2 39422  97.6214 132.8260 0011103  58.8721 301.3591 15.02726062683404
SWARM B                 
1 39451U 13067A   26162.76549666  .00003081  00000+0  10982-3 0  9999
2 39451  87.7436 343.9647 0003365  88.2474 271.9160 15.28518467682419
